[{"OBJECT_NAME":"LIZZIESAT-1 (LS-1)","OBJECT_ID":"2024-043AL","EPOCH":"2026-03-09T21:24:55.126944","MEAN_MOTION":15.26635712,"ECCENTRICITY":0.00099234,"INCLINATION":97.5461,"RA_OF_ASC_NODE":203.4772,"ARG_OF_PERICENTER":229.9925,"MEAN_ANOMALY":130.0443,"EPHEMERIS_TYPE":0,"CLASSIFICATION_TYPE":"U","NORAD_CAT_ID":59132,"ELEMENT_SET_NO":999,"REV_AT_EPOCH":11178,"BSTAR":0.0002232873,"MEAN_MOTION_DOT":5.784e-5,"MEAN_MOTION_DDOT":0},{"OBJECT_NAME":"STARLINK-36097","OBJECT_ID":"2025-298S","EPOCH":"2026-03-09T21:42:20.478816","MEAN_MOTION":15.26086669,"ECCENTRICITY":0.00039178,"INCLINATION":70.003,"RA_OF_ASC_NODE":12.9557,"ARG_OF_PERICENTER":200.4809,"MEAN_ANOMALY":159.6208,"EPHEMERIS_TYPE":0,"CLASSIFICATION_TYPE":"U","NORAD_CAT_ID":67091,"ELEMENT_SET_NO":999,"REV_AT_EPOCH":1327,"BSTAR":0.0027728212,"MEAN_MOTION_DOT":0.00072258,"MEAN_MOTION_DDOT":0}]
